STARLINK-34460          
1 66099C 25236P   26097.05326389  .00002161  00000+0  72860-4 0   973
2 66099  53.1587 331.8099 0000996  86.1294 201.6477 15.30185500    14
STARLINK-35609          
1 66100C 25236Q   26097.09284722  .00048081  00000+0  16208-2 0   977
2 66100  53.1609 332.1785 0001298  82.1098 144.6541 15.30161397    18
STARLINK-35595          
1 66101C 25236R   26097.03312500 -.00003166  00000+0 -10670-3 0   973
2 66101  53.1611 332.4211 0001119  89.0271 186.0002 15.30190731    16
STARLINK-35599          
1 66102C 25236S   26097.05812500  .00009012  00000+0  30383-3 0   978
2 66102  53.1612 332.2696 0000807  58.8706  11.4100 15.30176429    11
STARLINK-35622          
1 66103C 25236T   26097.06298611 -.00000196  00000+0 -66190-5 0   974
2 66103  53.1610 332.1774 0001449  73.2206  58.7438 15.30190508    17
STARLINK-35452          
1 66104C 25236U   26097.05951389  .00014978  00000+0  50493-3 0   970
2 66104  53.1611 332.2285 0001286  69.9159  25.4688 15.30175925    19
STARLINK-35561          
1 66105C 25236V   26096.99354167 -.00037620  00000+0 -12680-2 0   969
2 66105  53.1605 332.4651 0001357  78.5341  48.1116 15.30208359    16
STARLINK-35584          
1 66106C 25236W   26097.07340278  .00028634  00000+0  96533-3 0   972
2 66106  53.1600 332.0605 0001316  68.9886 155.2990 15.30168345    19
STARLINK-35593          
1 66107C 25236X   26097.02895833 -.00009892  00000+0 -33345-3 0   979
2 66107  53.1596 332.2327 0001226  85.7504 271.0178 15.30191717    15
STARLINK-35590          
1 66108C 25236Y   26097.03451389  .00001880  00000+0  63389-4 0   974
2 66108  53.1588 332.1606 0001259  82.2891 328.3649 15.30183431    16
STARLINK-35545          
1 66109C 25236Z   26097.05048611  .00011954  00000+0  40291-3 0   976
2 66109  53.1592 332.1096 0001177  92.9377  34.1153 15.30185059    11
STARLINK-35427          
1 66110C 25236AA  26097.03312500 -.00009675  00000+0 -32615-3 0   977
2 66110  53.1596 332.5688 0001182  81.5925 117.8229 15.30191061    10
STARLINK-35574          
1 66111C 25236AB  26097.09284722  .00013298  00000+0  44823-3 0   976
2 66111  53.1599 332.2686 0001316  79.0659 101.1639 15.30182880    14
STARLINK-35531          
1 66112C 25236AC  26097.02201389 -.00018332  00000+0 -61787-3 0   972
2 66112  53.1583 332.1838 0001277  86.3607 272.8410 15.30199716    15
STARLINK-35491          
1 66113C 25236AD  26097.02270833 -.00013137  00000+0 -44280-3 0   970
2 66113  53.1601 332.5711 0001197  74.8217  90.4463 15.30195766    14
STARLINK-35496          
1 66114C 25237A   26097.04701389 -.00005779  00000+0 -19490-3 0   977
2 66114  53.1584 267.8943 0001122  75.1268 239.8492 15.30174954    17
STARLINK-35428          
1 66115C 25237B   26097.05187500 -.00007541  00000+0 -25419-3 0   979
2 66115  53.1590 268.0453 0001143  82.2858 172.2902 15.30189634    18
STARLINK-35573          
1 66116C 25237C   26096.98798611  .00036222  00000+0  12207-2 0   967
2 66116  53.1561 268.0182 0001094  86.7002 338.6015 15.30176210    10
STARLINK-35572          
1 66117C 25237D   26097.11090278 -.00038411  00000+0 -12948-2 0   975
2 66117  53.1591 267.7008 0001050  84.3767 170.4456 15.30206195    18
STARLINK-35468          
1 66118C 25237E   26097.01229167  .00021840  00000+0  73619-3 0   975
2 66118  53.1585 268.2984 0000889  66.0219 295.4885 15.30177079    11
STARLINK-35547          
1 66119C 25237F   26097.09701389 -.00031029  00000+0 -10457-2 0   977
2 66119  53.1572 267.5797 0001149  84.2390 187.0913 15.30209596    12
STARLINK-35553          
1 66120C 25237G   26097.07548611 -.00023576  00000+0 -79450-3 0   971
2 66120  53.1590 267.8080 0001231  77.2904  11.4025 15.30207345    11
STARLINK-35631          
1 66121C 25237H   26097.06923611 -.00016881  00000+0 -56904-3 0   978
2 66121  53.1587 268.0067 0001010  76.5707 250.4338 15.30195473    14
STARLINK-35653          
1 66122C 25237J   26097.09423611 -.00017180  00000+0 -57910-3 0   978
2 66122  53.1590 267.7524 0000999  77.3672  97.2131 15.30195546    17
STARLINK-35628          
1 66123C 25237K   26097.06645833 -.00018174  00000+0 -61247-3 0   970
2 66123  53.1561 267.6262 0000682  73.9393  75.5147 15.30203207    15
STARLINK-35645          
1 66124C 25237L   26097.06229167 -.00011427  00000+0 -38514-3 0   974
2 66124  53.1577 267.7855 0001079  83.0108 333.6797 15.30196587    10
STARLINK-35649          
1 66125C 25237M   26097.05743056 -.00013713  00000+0 -46215-3 0   979
2 66125  53.1566 267.5301 0001062  82.4581  87.0295 15.30201638    10
STARLINK-35658          
1 66126C 25237N   26096.99840278  .00028584  00000+0  96336-3 0   964
2 66126  53.1562 267.8736 0001124  75.1030  94.1435 15.30178325    10
STARLINK-35629          
1 66127C 25237P   26097.07965278 -.00020949  00000+0 -70612-3 0   972
2 66127  53.1575 268.0344 0001007  81.3366 262.3639 15.30199056    13
STARLINK-35612          
1 66128C 25237Q   26097.04701389 -.00044894  00000+0 -15133-2 0   972
2 66128  53.1588 268.1000 0000940  76.8821 133.4524 15.30210769    14
STARLINK-35632          
1 66129C 25237R   26097.08451389 -.00037961  00000+0 -12786-2 0   977
2 66129  53.1592 267.8561 0001218  58.6743  33.2169 15.30232856    11
STARLINK-35637          
1 66130C 25237S   26097.06298611 -.00017468  00000+0 -58868-3 0   976
2 66130  53.1590 267.8869 0001097  70.4071 297.7522 15.30203841    15
STARLINK-35630          
1 66131C 25237T   26097.00465278  .00026803  00000+0  90235-3 0   971
2 66131  53.1587 268.1232 0001247 305.1936 118.9115 15.30214385    12
STARLINK-34412          
1 66132C 25237U   26097.04284722 -.00004302  00000+0 -14499-3 0   979
2 66132  53.1574 267.8523 0001153  80.2944 240.8557 15.30194547    16
STARLINK-35520          
1 66133C 25237V   26097.03381944 -.00000721  00000+0 -24287-4 0   971
2 66133  53.1566 267.8362 0000806  91.1468 209.3325 15.30194803    13
STARLINK-35525          
1 66134C 25237W   26097.09909722 -.00027112  00000+0 -91376-3 0   973
2 66134  53.1572 267.9796 0000339  86.4121 347.0089 15.30206036    16
STARLINK-34852          
1 66135C 25237X   26097.06784722 -.00022264  00000+0 -75026-3 0   979
2 66135  53.1592 267.9417 0001102  72.7279 281.5176 15.30207438    16
STARLINK-35592          
1 66136C 25237Y   26097.00465278  .00025554  00000+0  86074-3 0   974
2 66136  53.1567 267.9466 0001088  74.5465  76.7011 15.30197983    18
STARLINK-35576          
1 66137C 25237Z   26097.06784722 -.00021157  00000+0 -71307-3 0   979
2 66137  53.1564 267.5138 0000697  88.1779 121.2765 15.30202951    16
STARLINK-35623          
1 66138C 25237AA  26097.06506944 -.00011906  00000+0 -40153-3 0   974
2 66138  53.1578 268.0772 0000955  91.4966 183.5366 15.30177130    12
STARLINK-35549          
1 66139C 25237AB  26097.05187500 -.00005264  00000+0 -17740-3 0   973
2 66139  53.1561 267.6562 0001102  82.8590   3.6642 15.30194659    13
STARLINK-35625          
1 66140C 25237AC  26097.08173611 -.00014322  00000+0 -48293-3 0   978
2 66140  53.1580 267.7038 0000984  92.3715  65.5954 15.30183133    15
STARLINK-35603          
1 66141C 25237AD  26097.00812500  .00019439  00000+0  65525-3 0   977
2 66141  53.1572 268.3878 0000995  67.4563 230.3784 15.30177400    15
STARLINK-35318          
1 66146C 25240A   26097.03659722  .00032986  00000+0  11119-2 0   975
2 66146  53.1577 291.3824 0000988  85.0359 331.9861 15.30171829    16
STARLINK-33948          
1 66147C 25240B   26097.01229167  .00044494  00000+0  14994-2 0   971
2 66147  53.1577 291.4237 0000846  68.6926 249.2545 15.30175077    15
STARLINK-35081          
1 66148C 25240C   26096.98312500  .00040669  00000+0  13710-2 0   965
2 66148  53.1596 291.1927 0001188  79.2278 258.2927 15.30164871    12
STARLINK-35601          
1 66149C 25240D   26097.00118056  .00044739  00000+0  15081-2 0   976
2 66149  53.1603 291.2452 0000482  24.4890 348.5603 15.30165538    19
STARLINK-35605          
1 66150C 25240E   26096.98798611  .00049362  00000+0  16635-2 0   967
2 66150  53.1599 291.3614 0001172  70.9536 200.2849 15.30169850    13
STARLINK-35540          
1 66151C 25240F   26096.98937500  .00042233  00000+0  14234-2 0   963
2 66151  53.1575 290.9982 0001023  88.6929  10.5104 15.30171673    10
STARLINK-35455          
1 66152C 25240G   26097.00395833  .00049799  00000+0  16788-2 0   976
2 66152  53.1581 291.4176 0001029  74.4757 220.8285 15.30160115    12
STARLINK-34752          
1 66153C 25240H   26097.09631944  .00001446  00000+0  48730-4 0   973
2 66153  53.1574 291.1815 0000974  77.8271 267.6452 15.30187126    14
STARLINK-34625          
1 66154C 25240J   26097.02270833  .00040921  00000+0  13793-2 0   973
2 66154  53.1583 291.3046 0000885  91.0772 319.1955 15.30169222    16
STARLINK-35580          
1 66155C 25240K   26097.01854167  .00046437  00000+0  15652-2 0   975
2 66155  53.1599 291.1034 0001046  76.2520  61.5720 15.30165712    13
STARLINK-35621          
1 66156C 25240L   26097.01645833  .00033004  00000+0  11126-2 0   972
2 66156  53.1577 291.4833 0001175  82.3801 217.8378 15.30169067    15
STARLINK-35594          
1 66157C 25240M   26097.00881944  .00053493  00000+0  18026-2 0   977
2 66157  53.1580 290.9764 0000940  91.2988  80.1783 15.30171295    18
STARLINK-35587          
1 66158C 25240N   26097.09493056  .00010346  00000+0  34864-3 0   979
2 66158  53.1589 290.9463 0001287  85.1241  14.8347 15.30192981    18
STARLINK-35586          
1 66159C 25240P   26097.00604167  .00043183  00000+0  14553-2 0   975
2 66159  53.1577 291.5506 0001141  77.8731 153.2848 15.30172190    16
STARLINK-35636          
1 66160C 25240Q   26097.07409722  .00014149  00000+0  47728-3 0   975
2 66160  53.1576 291.2271 0001025  86.7087 165.3535 15.30156589    18
STARLINK-35635          
1 66161C 25240R   26097.02409722  .00039209  00000+0  13215-2 0   978
2 66161  53.1585 291.2881 0001083  70.3683 353.3682 15.30171713    19
